0099P         2022 04 12.8987  4.706014  0.229500  174.9602   28.1030    4.3393  20211016   4.5  6.0  99P/Kowal                                                MPEC 2021-S45
0100P         2022 08 10.9857  2.017391  0.412263  181.9851   37.6930   25.5645  20211016   9.0  4.0  100P/Hartley                                             MPEC 2013-O31
0101P         2020 01 12.6838  2.344391  0.596089  277.7057  116.2263    5.0525  20211016  10.0  4.8  101P/Chernykh                                            MPEC 2021-S45
0102P         2021 01 22.4981  2.070156  0.457147   20.5668  339.3647   25.8846  20211016   6.5  8.0  102P/Shoemaker                                           MPEC 2021-S45
0103P         2023 10 12.7051  1.065707  0.693400  181.2822  219.7361   13.6045  20211016   8.5  8.0  103P/Hartley                                             MPEC 2018-HA5
0104P         2022 01 11.6311  1.073150  0.665409  227.2406  207.2206    5.7006  20211016  16.0  4.0  104P/Kowal                                               MPEC 2021-TD0
0105P         2018 08  9.3177  2.048531  0.409275   46.4871  192.4064    9.1695  20211016  11.5  6.0  105P/Singer Brewster                                     MPC109147
0106P         2021 08 18.7720  1.528635  0.593679  353.6688   48.8854   19.5363  20211016  14.0  4.8  106P/Schuster                                            MPEC 2021-TD0
0107P         2022 08 24.6743  0.966866  0.631665   95.4260  266.7838    2.7990  20211016   9.0  4.0  107P/Wilson-Harrington                                   MPEC 2015-M77
0108P         2021 09 10.0817  1.660264  0.555940  354.4146   50.2919   11.4366  20211016   8.0 12.0  108P/Ciffreo                                             MPEC 2021-TD0
0109P         1992 12  4.9080  0.973832  0.962766  152.9359  139.0415  113.9842  20211016   4.0  6.0  109P/Swift-Tuttle                                        105,  420
0110P         2021 10 18.3004  2.455725  0.318260  167.4444  287.5354   11.7069  20211016   1.0 12.0  110P/Hartley                                             MPEC 2021-TD0
0111P         2021 06 15.5210  3.707605  0.106193    0.9746   89.7660    4.2266  20211016   5.0  8.0  111P/Helin-Roman-Crockett                                MPC 75718
0112P         2020 02  8.0508  1.445315  0.590017   21.4753   31.8330   24.2003  20211016  14.0  6.0  112P/Urata-Niijima                                       MPEC 2021-S45
0113P         2022 06  1.2591  2.141952  0.420255  115.4466  306.6910    5.2909  20211016  13.5  4.0  113P/Spitaler                                            MPEC 2021-TD0
0114P         2020 01 14.0461  1.577955  0.554837  172.7601  271.0452   18.2750  20211016  11.5  6.0  114P/Wiseman-Skiff                                       MPEC 2021-S45
0115P         2020 07 29.5866  2.056967  0.518504  120.9816  176.0092   11.6774  20211016  10.5  6.0  115P/Maury                                               MPEC 2020-SI8
0116P         2022 07 17.0157  2.196788  0.370591  173.3223   20.9827    3.6035  20211016   2.5 10.0  116P/Wild                                                MPEC 2021-TD0
0117P         2022 07  7.5661  3.039816  0.255612  222.8986   58.8411    8.7034  20211016   2.5  8.0  117P/Helin-Roman-Alu                                     MPEC 2021-S45
0118P         2022 11 23.9718  1.830520  0.454300  314.6403  142.1040   10.0982  20211016  12.0  4.0  118P/Shoemaker-Levy                                      MPEC 2021-TD0
0119P         2022 08 11.5754  2.327963  0.389066  321.9117  104.6090    7.3944  20211016   3.5  8.0  119P/Parker-Hartley                                      MPEC 2021-TD0
0120P         2021 05  7.2061  2.477937  0.374605   36.5776  358.6725    8.4899  20211016  12.0  4.0  120P/Mueller                                             MPEC 2021-TD0
0121P         2023 06 27.4655  3.732510  0.185814   11.4333   94.1220   20.1635  20211016   6.5  8.0  121P/Shoemaker-Holt                                      MPEC 2021-TD0
0122P         1995 09  9.2757  0.665249  0.962255   13.0015   79.5779   85.0595  20211016   7.5  5.2  122P/de Vico                                             MPC 75718
0123P         2019 02  4.0719  2.146984  0.446132  103.9977   46.0636   15.2858  20211016  12.2  4.0  123P/West-Hartley                                        MPEC 2021-F20
0124P         2020 04 27.1179  1.651300  0.503271  184.1509    0.2647   31.5578  20211016  15.2  4.0  124P/Mrkos                                               MPEC 2021-F20
0125P         2024 03  7.2490  1.524141  0.512482   87.2384  153.1458    9.9866  20211016   9.0  4.0  125P/Spacewatch                                          MPEC 2015-M77
0126P         2023 07  5.3002  1.712106  0.696357  356.5415  357.8691   45.8744  20211016   9.0  4.0  126P/IRAS                                                MPC 66205
0127P         2022 08 10.8607  2.210002  0.360005    6.4126   13.6236   14.2965  20211016  11.0  6.0  127P/Holt-Olmstead                                       MPC 84321
0128P         2026 07 18.0176  3.049577  0.320998  210.2776  214.3038    4.3684  20211016   8.5  4.0  128P/Shoemaker-Holt                                      MPC 89014
0129P         2022 12  1.9474  3.923973  0.084176  307.6770  184.8749    3.4421  20211016  11.0  4.0  129P/Shoemaker-Levy                                      MPEC 2019-TG9
0130P         2024 04 14.4057  1.822526  0.461373  246.0370   70.2142    6.0625  20211016  10.0  6.0  130P/McNaught-Hughes                                     MPC 78188
0131P         2019 01 24.5601  2.413676  0.344139  179.0249  214.1514    7.3569  20211016  11.0  4.0  131P/Mueller                                             MPC102101
0132P         2021 11 13.1084  1.691775  0.564679  216.3464  173.9967    5.3827  20211016  11.0  6.0  132P/Helin-Roman-Alu                                     MPEC 2021-TD0
0133P         2024 05  9.5970  2.668730  0.156811  131.8697  160.1022    1.3893  20211016  15.4  2.0  133P/Elst-Pizarro                                        MPC 94676
0134P         2014 05 17.6784  2.594076  0.585714   18.8883  202.0664    4.3380  20211016  11.5  4.0  134P/Kowal-Vavrova                                       MPC 89012
0135P         2022 04  7.3206  2.680083  0.295119   22.3171  213.0249    6.0626  20211016   7.0  8.0  135P/Shoemaker-Levy                                      MPEC 2021-F20
0136P         2025 01  2.1923  2.964029  0.293005  224.9351  137.4488    9.4244  20211016  11.0  4.0  136P/Mueller                                             MPEC 2020-W26
0137P         2018 12 13.9586  1.927336  0.573661  141.0555  233.0117    4.8545  20211016  11.0  4.0  137P/Shoemaker-Levy                                      MPEC 2021-N06
0138P         2019 05  3.0405  1.699550  0.530726   95.5378  309.3263   10.0907  20211016  15.0  6.0  138P/Shoemaker-Levy                                      MPEC 2016-U66
0139P         2017 12  9.8982  3.404454  0.247061  165.7113  242.1619    2.3345  20211016   9.5  4.0  139P/Vaisala-Oterma                                      MPEC 2020-HN5
0140P         2015 08  4.7028  1.980890  0.691775  172.8445  343.2607    3.8370  20211016  11.5  6.0  140P/Bowell-Skiff                                        MPEC 2015-E14
0141P         2020 12 16.3032  0.807743  0.735804  153.5547  241.8354   13.9457  20211016  14.7  4.0  141P/Machholz                                            MPEC 2021-AJ0
0142P         2021 05 12.6118  2.512973  0.497365  173.9524  175.9323   12.2510  20211016   8.5  6.0  142P/Ge-Wang                                             MPEC 2021-TD0
0143P         2018 05  5.0742  2.521432  0.410978  320.3653  245.1943    4.6993  20211016  13.5  2.0  143P/Kowal-Mrkos                                         MPEC 2021-TD0
0144P         2024 01 25.6580  1.392131  0.635730  216.3107  243.1844    3.9356  20211016   8.5  8.0  144P/Kushida                                             MPC104795
0145P         2017 09  1.7008  1.896433  0.541690   10.2395   26.7895   11.2753  20211016  13.5  4.0  145P/Shoemaker-Levy                                      MPC108598
0146P         2024 08  5.4748  1.422394  0.647194  316.9624   53.3896   23.1021  20211016  15.0  4.0  146P/Shoemaker-LINEAR                                    MPC100284
0147P         2023 12  8.1044  3.108842  0.225506  349.0719   92.7513    2.3230  20211016  14.0  4.0  147P/Kushida-Muramatsu                                   MPC 75720
0148P         2022 06 13.6156  1.629112  0.549921    7.9805   89.2200    3.6579  20211016  16.0  2.0  148P/Anderson-LINEAR                                     MPEC 2021-TD0
0149P         2018 08 29.3073  2.776459  0.327809   31.7955  144.3853   35.2796  20211016   8.0  8.0  149P/Mueller                                             MPC 75720
0150P         2024 03 13.3805  1.755745  0.547407  245.5806  272.3505   18.5056  20211016  13.5  4.0  150P/LONEOS                                              MPEC 2021-TD0
0151P         2015 10 11.3882  2.457062  0.573665  216.0563  143.1587    4.7288  20211016  10.0  6.0  151P/Helin                                               MPEC 2015-Q71
0152P         2022 01 13.6331  3.094948  0.308696  163.9329   91.8591    9.8802  20211016  12.6  4.0  152P/Helin-Lawrence                                      MPEC 2021-F20
0153P         2002 03  4.7395  0.524313  0.989632   35.0285   93.2085   27.8764  20211016   9.0  4.0  153P/Ikeya-Zhang                                         MPC 46101
0154P         2024 06 13.8820  1.556761  0.675829   47.8443  343.0414   17.6332  20211016   2.5 12.0  154P/Brewington                                          MPC 87068
0155P         2019 11 14.8717  1.800443  0.726195   14.6059   97.1890    6.3969  20211016  13.8  4.0  155P/Shoemaker                                           MPEC 2021-F20
0156P         2020 11 17.9060  1.332903  0.614903    0.4436   35.3579   17.2632  20211016  15.5  2.0  156P/Russell-LINEAR                                      MPEC 2021-O56
